CCSDS_OMM_VERS = 2.0
CREATION_DATE  = 
ORIGINATOR     = 

OBJECT_NAME    = UNKNOWN
OBJECT_ID      = 
CENTER_NAME    = EARTH
REF_FRAME      = TEME
TIME_SYSTEM    = UTC
MEAN_ELEMENT_THEORY = SGP/SGP4

EPOCH          = 2025-12-14T10:07:18.767136
MEAN_MOTION    = 14.34948867
ECCENTRICITY   = .0048642
INCLINATION    = 99.7876
RA_OF_ASC_NODE = 149.3938
ARG_OF_PERICENTER = 9.9946
MEAN_ANOMALY   = 350.2192

EPHEMERIS_TYPE = 0
CLASSIFICATION_TYPE = U
NORAD_CAT_ID   = 82820
ELEMENT_SET_NO = 999
REV_AT_EPOCH   = 62587
BSTAR          = .1389E-2
MEAN_MOTION_DOT = .3953E-4
MEAN_MOTION_DDOT = 0

CCSDS_OMM_VERS = 2.0
CREATION_DATE  = 
ORIGINATOR     = 

OBJECT_NAME    = UNKNOWN
OBJECT_ID      = 
CENTER_NAME    = EARTH
REF_FRAME      = TEME
TIME_SYSTEM    = UTC
MEAN_ELEMENT_THEORY = SGP/SGP4

EPOCH          = 2025-12-10T22:48:50.067072
MEAN_MOTION    = 13.87785262
ECCENTRICITY   = .0127239
INCLINATION    = 82.6889
RA_OF_ASC_NODE = 66.0065
ARG_OF_PERICENTER = 284.7232
MEAN_ANOMALY   = 73.9857

EPHEMERIS_TYPE = 0
CLASSIFICATION_TYPE = U
NORAD_CAT_ID   = 82854
ELEMENT_SET_NO = 999
REV_AT_EPOCH   = 60755
BSTAR          = .26354E-2
MEAN_MOTION_DOT = .3346E-4
MEAN_MOTION_DDOT = 0

CCSDS_OMM_VERS = 2.0
CREATION_DATE  = 
ORIGINATOR     = 

OBJECT_NAME    = UNKNOWN
OBJECT_ID      = 
CENTER_NAME    = EARTH
REF_FRAME      = TEME
TIME_SYSTEM    = UTC
MEAN_ELEMENT_THEORY = SGP/SGP4

EPOCH          = 2025-12-13T15:57:02.597760
MEAN_MOTION    = 14.24431549
ECCENTRICITY   = .0039941
INCLINATION    = 99.9976
RA_OF_ASC_NODE = 241.9627
ARG_OF_PERICENTER = 283.9826
MEAN_ANOMALY   = 75.6909

EPHEMERIS_TYPE = 0
CLASSIFICATION_TYPE = U
NORAD_CAT_ID   = 82873
ELEMENT_SET_NO = 999
REV_AT_EPOCH   = 62136
BSTAR          = .20826E-2
MEAN_MOTION_DOT = .4809E-4
MEAN_MOTION_DDOT = 0

CCSDS_OMM_VERS = 2.0
CREATION_DATE  = 
ORIGINATOR     = 

OBJECT_NAME    = UNKNOWN
OBJECT_ID      = 
CENTER_NAME    = EARTH
REF_FRAME      = TEME
TIME_SYSTEM    = UTC
MEAN_ELEMENT_THEORY = SGP/SGP4

EPOCH          = 2025-12-10T05:05:59.333856
MEAN_MOTION    = 14.15145854
ECCENTRICITY   = .0377242
INCLINATION    = 98.6710
RA_OF_ASC_NODE = 327.6204
ARG_OF_PERICENTER = 290.3778
MEAN_ANOMALY   = 65.7256

EPHEMERIS_TYPE = 0
CLASSIFICATION_TYPE = U
NORAD_CAT_ID   = 82875
ELEMENT_SET_NO = 999
REV_AT_EPOCH   = 54411
BSTAR          = .42526E-3
MEAN_MOTION_DOT = .1592E-4
MEAN_MOTION_DDOT = 0

CCSDS_OMM_VERS = 2.0
CREATION_DATE  = 
ORIGINATOR     = 

OBJECT_NAME    = UNKNOWN
OBJECT_ID      = 
CENTER_NAME    = EARTH
REF_FRAME      = TEME
TIME_SYSTEM    = UTC
MEAN_ELEMENT_THEORY = SGP/SGP4

EPOCH          = 2025-12-10T18:55:40.185120
MEAN_MOTION    = 14.31548934
ECCENTRICITY   = .0022478
INCLINATION    = 98.9616
RA_OF_ASC_NODE = 99.8161
ARG_OF_PERICENTER = 52.2933
MEAN_ANOMALY   = 308.0282

EPHEMERIS_TYPE = 0
CLASSIFICATION_TYPE = U
NORAD_CAT_ID   = 82893
ELEMENT_SET_NO = 999
REV_AT_EPOCH   = 42369
BSTAR          = .47982E-2
MEAN_MOTION_DOT = .12772E-3
MEAN_MOTION_DDOT = 0

CCSDS_OMM_VERS = 2.0
CREATION_DATE  = 
ORIGINATOR     = 

OBJECT_NAME    = UNKNOWN
OBJECT_ID      = 
CENTER_NAME    = EARTH
REF_FRAME      = TEME
TIME_SYSTEM    = UTC
MEAN_ELEMENT_THEORY = SGP/SGP4

EPOCH          = 2025-12-13T06:11:38.976000
MEAN_MOTION    = 13.27692819
ECCENTRICITY   = .07761
INCLINATION    = 65.8353
RA_OF_ASC_NODE = 173.0882
ARG_OF_PERICENTER = 268.6168
MEAN_ANOMALY   = 82.5932

EPHEMERIS_TYPE = 0
CLASSIFICATION_TYPE = U
NORAD_CAT_ID   = 82912
ELEMENT_SET_NO = 999
REV_AT_EPOCH   = 57939
BSTAR          = .21528E-2
MEAN_MOTION_DOT = .5249E-4
MEAN_MOTION_DDOT = 0

CCSDS_OMM_VERS = 2.0
CREATION_DATE  = 
ORIGINATOR     = 

OBJECT_NAME    = UNKNOWN
OBJECT_ID      = 
CENTER_NAME    = EARTH
REF_FRAME      = TEME
TIME_SYSTEM    = UTC
MEAN_ELEMENT_THEORY = SGP/SGP4

EPOCH          = 2025-12-11T16:50:35.896704
MEAN_MOTION    = 13.23265569
ECCENTRICITY   = .0380897
INCLINATION    = 99.8939
RA_OF_ASC_NODE = 140.2520
ARG_OF_PERICENTER = 5.3797
MEAN_ANOMALY   = 355.1243

EPHEMERIS_TYPE = 0
CLASSIFICATION_TYPE = U
NORAD_CAT_ID   = 82961
ELEMENT_SET_NO = 999
REV_AT_EPOCH   = 55557
BSTAR          = .22329E-1
MEAN_MOTION_DOT = .13837E-3
MEAN_MOTION_DDOT = 0

CCSDS_OMM_VERS = 2.0
CREATION_DATE  = 
ORIGINATOR     = 

OBJECT_NAME    = UNKNOWN
OBJECT_ID      = 
CENTER_NAME    = EARTH
REF_FRAME      = TEME
TIME_SYSTEM    = UTC
MEAN_ELEMENT_THEORY = SGP/SGP4

EPOCH          = 2025-12-07T04:00:31.652064
MEAN_MOTION    = 13.59984266
ECCENTRICITY   = .0002674
INCLINATION    = 100.1169
RA_OF_ASC_NODE = 60.5165
ARG_OF_PERICENTER = 181.9708
MEAN_ANOMALY   = 178.1421

EPHEMERIS_TYPE = 0
CLASSIFICATION_TYPE = U
NORAD_CAT_ID   = 82965
ELEMENT_SET_NO = 999
REV_AT_EPOCH   = 52369
BSTAR          = .22495E-2
MEAN_MOTION_DOT = .163E-4
MEAN_MOTION_DDOT = 0

CCSDS_OMM_VERS = 2.0
CREATION_DATE  = 
ORIGINATOR     = 

OBJECT_NAME    = UNKNOWN
OBJECT_ID      = 
CENTER_NAME    = EARTH
REF_FRAME      = TEME
TIME_SYSTEM    = UTC
MEAN_ELEMENT_THEORY = SGP/SGP4

EPOCH          = 2025-12-13T20:45:31.261824
MEAN_MOTION    = 0.99112026
ECCENTRICITY   = .0124
INCLINATION    = 6.1822
RA_OF_ASC_NODE = 290.6103
ARG_OF_PERICENTER = 251.6004
MEAN_ANOMALY   = 310.2436

EPHEMERIS_TYPE = 0
CLASSIFICATION_TYPE = U
NORAD_CAT_ID   = 83903
ELEMENT_SET_NO = 999
REV_AT_EPOCH   = 4367
BSTAR          = 0
MEAN_MOTION_DOT = -.179E-5
MEAN_MOTION_DDOT = 0

CCSDS_OMM_VERS = 2.0
CREATION_DATE  = 
ORIGINATOR     = 

OBJECT_NAME    = UNKNOWN
OBJECT_ID      = 
CENTER_NAME    = EARTH
REF_FRAME      = TEME
TIME_SYSTEM    = UTC
MEAN_ELEMENT_THEORY = SGP/SGP4

EPOCH          = 2025-12-10T20:24:23.315040
MEAN_MOTION    = 1.02662909
ECCENTRICITY   = .0232633
INCLINATION    = 5.7866
RA_OF_ASC_NODE = 297.5267
ARG_OF_PERICENTER = 273.3759
MEAN_ANOMALY   = 209.9167

EPHEMERIS_TYPE = 0
CLASSIFICATION_TYPE = U
NORAD_CAT_ID   = 83934
ELEMENT_SET_NO = 999
REV_AT_EPOCH   = 4526
BSTAR          = 0
MEAN_MOTION_DOT = -.109E-5
MEAN_MOTION_DDOT = 0

CCSDS_OMM_VERS = 2.0
CREATION_DATE  = 
ORIGINATOR     = 

OBJECT_NAME    = UNKNOWN
OBJECT_ID      = 
CENTER_NAME    = EARTH
REF_FRAME      = TEME
TIME_SYSTEM    = UTC
MEAN_ELEMENT_THEORY = SGP/SGP4

EPOCH          = 2025-12-11T21:34:39.323136
MEAN_MOTION    = 5.32023457
ECCENTRICITY   = .5068416
INCLINATION    = 18.2623
RA_OF_ASC_NODE = 220.1604
ARG_OF_PERICENTER = 142.7690
MEAN_ANOMALY   = 266.4241

EPHEMERIS_TYPE = 0
CLASSIFICATION_TYPE = U
NORAD_CAT_ID   = 83970
ELEMENT_SET_NO = 999
REV_AT_EPOCH   = 19616
BSTAR          = .89373E-2
MEAN_MOTION_DOT = .7996E-4
MEAN_MOTION_DDOT = 0

CCSDS_OMM_VERS = 2.0
CREATION_DATE  = 
ORIGINATOR     = 

OBJECT_NAME    = UNKNOWN
OBJECT_ID      = 
CENTER_NAME    = EARTH
REF_FRAME      = TEME
TIME_SYSTEM    = UTC
MEAN_ELEMENT_THEORY = SGP/SGP4

EPOCH          = 2025-12-08T22:45:16.776576
MEAN_MOTION    = 2.16233493
ECCENTRICITY   = .6147968
INCLINATION    = 22.4615
RA_OF_ASC_NODE = 178.3059
ARG_OF_PERICENTER = 59.4088
MEAN_ANOMALY   = 347.1938

EPHEMERIS_TYPE = 0
CLASSIFICATION_TYPE = U
NORAD_CAT_ID   = 84006
ELEMENT_SET_NO = 999
REV_AT_EPOCH   = 8414
BSTAR          = 0
MEAN_MOTION_DOT = -.44E-6
MEAN_MOTION_DDOT = 0

CCSDS_OMM_VERS = 2.0
CREATION_DATE  = 
ORIGINATOR     = 

OBJECT_NAME    = UNKNOWN
OBJECT_ID      = 
CENTER_NAME    = EARTH
REF_FRAME      = TEME
TIME_SYSTEM    = UTC
MEAN_ELEMENT_THEORY = SGP/SGP4

EPOCH          = 2025-12-13T17:49:31.584288
MEAN_MOTION    = 7.56440069
ECCENTRICITY   = .377818
INCLINATION    = 65.1664
RA_OF_ASC_NODE = 257.2358
ARG_OF_PERICENTER = 18.5893
MEAN_ANOMALY   = 352.1900

EPHEMERIS_TYPE = 0
CLASSIFICATION_TYPE = U
NORAD_CAT_ID   = 84188
ELEMENT_SET_NO = 999
REV_AT_EPOCH   = 4134
BSTAR          = .20358E+0
MEAN_MOTION_DOT = .390029E-2
MEAN_MOTION_DDOT = 0

CCSDS_OMM_VERS = 2.0
CREATION_DATE  = 
ORIGINATOR     = 

OBJECT_NAME    = UNKNOWN
OBJECT_ID      = 
CENTER_NAME    = EARTH
REF_FRAME      = TEME
TIME_SYSTEM    = UTC
MEAN_ELEMENT_THEORY = SGP/SGP4

EPOCH          = 2025-12-14T02:17:53.739168
MEAN_MOTION    = 3.17246395
ECCENTRICITY   = .6560884
INCLINATION    = 20.3198
RA_OF_ASC_NODE = 273.4265
ARG_OF_PERICENTER = 65.8004
MEAN_ANOMALY   = 347.5279

EPHEMERIS_TYPE = 0
CLASSIFICATION_TYPE = U
NORAD_CAT_ID   = 84232
ELEMENT_SET_NO = 999
REV_AT_EPOCH   = 10473
BSTAR          = .82848E-2
MEAN_MOTION_DOT = .10089E-3
MEAN_MOTION_DDOT = 0

CCSDS_OMM_VERS = 2.0
CREATION_DATE  = 
ORIGINATOR     = 

OBJECT_NAME    = UNKNOWN
OBJECT_ID      = 
CENTER_NAME    = EARTH
REF_FRAME      = TEME
TIME_SYSTEM    = UTC
MEAN_ELEMENT_THEORY = SGP/SGP4

EPOCH          = 2025-12-09T13:27:05.669856
MEAN_MOTION    = 2.62521322
ECCENTRICITY   = .6895252
INCLINATION    = 9.4466
RA_OF_ASC_NODE = 336.4617
ARG_OF_PERICENTER = 91.5164
MEAN_ANOMALY   = 341.7354

EPHEMERIS_TYPE = 0
CLASSIFICATION_TYPE = U
NORAD_CAT_ID   = 84236
ELEMENT_SET_NO = 999
REV_AT_EPOCH   = 11389
BSTAR          = .43682E-2
MEAN_MOTION_DOT = .584E-5
MEAN_MOTION_DDOT = 0

CCSDS_OMM_VERS = 2.0
CREATION_DATE  = 
ORIGINATOR     = 

OBJECT_NAME    = UNKNOWN
OBJECT_ID      = 
CENTER_NAME    = EARTH
REF_FRAME      = TEME
TIME_SYSTEM    = UTC
MEAN_ELEMENT_THEORY = SGP/SGP4

EPOCH          = 2025-12-09T03:29:25.320480
MEAN_MOTION    = 6.21471633
ECCENTRICITY   = .4565536
INCLINATION    = 23.8474
RA_OF_ASC_NODE = 165.3015
ARG_OF_PERICENTER = 231.3629
MEAN_ANOMALY   = 78.1844

EPHEMERIS_TYPE = 0
CLASSIFICATION_TYPE = U
NORAD_CAT_ID   = 84292
ELEMENT_SET_NO = 999
REV_AT_EPOCH   = 22784
BSTAR          = .23844E-2
MEAN_MOTION_DOT = .4329E-4
MEAN_MOTION_DDOT = 0

